[{"OBJECT_NAME":"FLOCK 4G-34","OBJECT_ID":"2025-009AT","EPOCH":"2026-03-09T17:34:06.952224","MEAN_MOTION":15.27131464,"ECCENTRICITY":6.743e-5,"INCLINATION":97.4004,"RA_OF_ASC_NODE":151.0149,"ARG_OF_PERICENTER":348.828,"MEAN_ANOMALY":11.2944,"EPHEMERIS_TYPE":0,"CLASSIFICATION_TYPE":"U","NORAD_CAT_ID":62650,"ELEMENT_SET_NO":999,"REV_AT_EPOCH":6372,"BSTAR":0.00049338357,"MEAN_MOTION_DOT":0.00013063,"MEAN_MOTION_DDOT":0},{"OBJECT_NAME":"STARLINK-36101","OBJECT_ID":"2025-281V","EPOCH":"2026-03-09T04:20:33.672192","MEAN_MOTION":15.27578133,"ECCENTRICITY":6.09e-5,"INCLINATION":42.9984,"RA_OF_ASC_NODE":346.6993,"ARG_OF_PERICENTER":308.8526,"MEAN_ANOMALY":51.2271,"EPHEMERIS_TYPE":0,"CLASSIFICATION_TYPE":"U","NORAD_CAT_ID":66867,"ELEMENT_SET_NO":999,"REV_AT_EPOCH":1609,"BSTAR":0.0012847994,"MEAN_MOTION_DOT":0.0003526,"MEAN_MOTION_DDOT":0}]
